H-2A R/B                
1 28932U 06002B   26159.02390670  .00006995  00000+0  33761-3 0  9993
2 28932  98.2560 314.0260 0049669 294.3106  65.2943 15.17950869108134
RESURS-DK 1             
1 29228U 06021A   26158.97910051  .00002799  00000+0  16340-3 0  9999
2 29228  69.9339   3.3886 0006437 299.3252  60.7270 15.13177297101180
CZ-4B R/B               
1 29507U 06046C   26159.02283543  .00004603  00000+0  22885-3 0  9999
2 29507  97.5454 203.6582 0031416 316.1729  43.7012 15.17717799 73741
CZ-2C R/B               
1 31114U 07010B   26159.25386394  .00000097  00000+0  63343-4 0  9999
2 31114  98.4091 268.0421 0059538  31.9541 328.5225 14.20274200992570
COSMO-SKYMED 1          
1 31598U 07023A   26159.24554297  .00002062  00000+0  18417-3 0  9992
2 31598  97.8858 351.0273 0001161  80.5042 279.6310 14.97059659 28454
COSMOS 2428             
1 31792U 07029A   26159.01101267 -.00000174  00000+0 -67939-4 0  9992
2 31792  70.9375  13.7451 0007234 152.6375 207.5129 14.12930113976857
SL-16 R/B               
1 31793U 07029B   26158.92722367  .00000311  00000+0  18580-3 0  9990
2 31793  70.9759 342.6951 0002239 258.5790 207.0203 14.14849857978137
KORONAS-FOTON           
1 33504U 09003A   26159.14428023  .00010331  00000+0  21396-3 0  9995
2 33504  82.4293 181.6912 0010686 177.6280 182.5021 15.45535835959708
CZ-2C R/B               
1 37731U 11030B   26159.11609505  .00001432  00000+0  18528-3 0  9992
2 37731  97.8652 114.6665 0053655  56.9307 314.6355 14.81449994803486
H-2A R/B                
1 38341U 12025E   26159.19246716  .00003045  00000+0  27472-3 0  9994
2 38341  98.4814 133.5967 0044312  18.2206 342.0588 14.95666091761744
SHIJIAN-16 (SJ-16)      
1 39358U 13057A   26159.19067244  .00000723  00000+0  73026-4 0  9993
2 39358  74.9733  13.7231 0016954 251.6324 108.3021 14.92591454685006
SL-4 R/B                
1 39679U 14021B   26158.98987996  .00012313  00000+0  25508-3 0  9991
2 39679  51.6060 255.8246 0091633  72.5138 288.5837 15.41760849670193
ALOS-2                  
1 39766U 14029A   26159.27926256  .00001029  00000+0  14460-3 0  9998
2 39766  97.9210 256.5705 0001665  91.6182 268.5220 14.79470096650267
YAOGAN-29               
1 41038U 15069A   26159.27200456  .00000005  00000+0  72907-5 0  9990
2 41038  98.0031 187.8908 0002942  67.5193 292.6332 14.83076999569304
ASTRO-H (HITOMI)        
1 41337U 16012A   26159.24547193  .00002390  00000+0  13591-3 0  9991
2 41337  30.9977 131.9342 0009609 164.4427 195.6508 15.10472221565937
HXMT (HUIYAN)           
1 42758U 17034A   26159.31985130  .00004111  00000+0  20550-3 0  9995
2 42758  43.0130 232.4157 0030183  88.5990 271.8316 15.18414098496319
SAOCOM 1A               
1 43641U 18076A   26159.29214116  .00000824  00000+0  11000-3 0  9997
2 43641  97.8888 346.1702 0001542  79.4496 280.6891 14.82169944414788
H-2A R/B                
1 43682U 18084L   26159.19052334  .00017078  00000+0  36277-3 0  9994
2 43682  98.8591  36.1169 0024267  70.4945 289.8918 15.44806429419733
SAOCOM 1B               
1 46265U 20059A   26159.32341569 -.00000084  00000+0 -39869-5 0  9998
2 46265  97.8891 345.2952 0001479  77.4710 282.6668 14.82161847312178
CSS (TIANHE)            
1 48274U 21035A   26159.08188283  .00025465  00000+0  30374-3 0  9998
2 48274  41.4696  17.3987 0008702   5.5904 354.5031 15.60427341291749
COSMOS 2550             
1 48865U 21056A   26159.28625118  .00005250  00000+0  16570-3 0  9994
2 48865  67.1417 126.8306 0008702 266.1166  93.8994 15.33747324277355
CZ-2C R/B               
1 52794U 22058K   26158.45145854  .00036142  00000+0  41128-3 0  9996
2 52794  50.1841 214.1517 0033048 227.1063 132.7135 15.61206771224127
CZ-2C R/B               
1 54039U 22132E   26158.98009401  .00059614  00000+0  48225-3 0  9992
2 54039  97.2911 165.6003 0017069 112.4619 247.8453 15.70443092204509
GSLV R/B                
1 54149U 22138AN  26158.96136585  .00002904  00000+0  24748-3 0  9996
2 54149  87.3800 136.0828 0021415 175.7728 184.3689 14.97218104197439
XRISM                   
1 57800U 23137A   26159.01713871  .00005436  00000+0  29986-3 0  9991
2 57800  31.0025  58.9975 0007920 233.1431 126.8482 15.12386516151478
ACS3                    
1 59588U 24077B   26159.30437500  .00026767  00000+0  20019-1 0  9990
2 59588  97.1681  80.0763 0051344  68.3061 292.3561 13.93888153106806
CZ-8A R/B               
1 66004U 25231K   26159.03831544 -.00000021  00000+0  51075-4 0  9995
2 66004  50.0043  78.2391 0116476 191.8063 168.0116 14.30152443 33638
SZ-21 MODULE            
1 66515U 25246C   26157.31606433  .00056445  00000+0  36002-3 0  9996
2 66515  41.4728  14.9847 0007184 283.9983  76.0062 15.75457395 32025
