OBJECT_NAME,OBJECT_ID,EPOCH,MEAN_MOTION,ECCENTRICITY,INCLINATION,RA_OF_ASC_NODE,ARG_OF_PERICENTER,MEAN_ANOMALY,EPHEMERIS_TYPE,CLASSIFICATION_TYPE,NORAD_CAT_ID,ELEMENT_SET_NO,REV_AT_EPOCH,BSTAR,MEAN_MOTION_DOT,MEAN_MOTION_DDOT
H-2A R/B,2006-002B,2026-06-08T00:34:25.538880,15.17950869,.00496698,98.2560,314.0260,294.3106,65.2943,0,U,28932,999,10813,.33761498E-3,.6995E-4,0
RESURS-DK 1,2006-021A,2026-06-07T23:29:54.284064,15.13177297,.00064373,69.9339,3.3886,299.3252,60.7270,0,U,29228,999,10118,.16339632E-3,.2799E-4,0
CZ-4B R/B,2006-046C,2026-06-08T00:32:52.981152,15.17717799,.00314166,97.5454,203.6582,316.1729,43.7012,0,U,29507,999,7374,.22884961E-3,.4603E-4,0
CZ-2C R/B,2007-010B,2026-06-08T06:05:33.844416,14.20274200,.00595389,98.4091,268.0421,31.9541,328.5225,0,U,31114,999,99257,.63342515E-4,.97E-6,0
COSMO-SKYMED 1,2007-023A,2026-06-08T05:53:34.912608,14.97059659,.00011611,97.8858,351.0273,80.5042,279.6310,0,U,31598,999,2845,.18416984E-3,.2062E-4,0
COSMOS 2428,2007-029A,2026-06-08T00:15:51.494688,14.12930113,.0007234,70.9375,13.7451,152.6375,207.5129,0,U,31792,999,97685,-.67939122E-4,-.174E-5,0
SL-16 R/B,2007-029B,2026-06-07T22:15:12.125088,14.14849857,.00022393,70.9759,342.6951,258.5790,207.0203,0,U,31793,999,97813,.185801E-3,.311E-5,0
KORONAS-FOTON,2009-003A,2026-06-08T03:27:45.811872,15.45535835,.00106861,82.4293,181.6912,177.6280,182.5021,0,U,33504,999,95970,.21396465E-3,.10331E-3,0
CZ-2C R/B,2011-030B,2026-06-08T02:47:10.612320,14.81449994,.00536553,97.8652,114.6665,56.9307,314.6355,0,U,37731,999,80348,.18528075E-3,.1432E-4,0
H-2A R/B,2012-025E,2026-06-08T04:37:09.162624,14.95666091,.00443125,98.4814,133.5967,18.2206,342.0588,0,U,38341,999,76174,.27472142E-3,.3045E-4,0
SHIJIAN-16 (SJ-16),2013-057A,2026-06-08T04:34:34.098816,14.92591454,.00169542,74.9733,13.7231,251.6324,108.3021,0,U,39358,999,68500,.73025587E-4,.723E-5,0
SL-4 R/B,2014-021B,2026-06-07T23:45:25.628544,15.41760849,.00916332,51.6060,255.8246,72.5138,288.5837,0,U,39679,999,67019,.25507866E-3,.12313E-3,0
ALOS-2,2014-029A,2026-06-08T06:42:08.285184,14.79470096,.00016654,97.9210,256.5705,91.6182,268.5220,0,U,39766,999,65026,.14460381E-3,.1029E-4,0
YAOGAN-29,2015-069A,2026-06-08T06:31:41.193984,14.83076999,.00029421,98.0031,187.8908,67.5193,292.6332,0,U,41038,999,56930,.7290732E-5,.5E-7,0
ASTRO-H (HITOMI),2016-012A,2026-06-08T05:53:28.774752,15.10472221,.00096094,30.9977,131.9342,164.4427,195.6508,0,U,41337,999,56593,.13591396E-3,.239E-4,0
HXMT (HUIYAN),2017-034A,2026-06-08T07:40:35.152320,15.18414098,.00301837,43.0130,232.4157,88.5990,271.8316,0,U,42758,999,49631,.20550169E-3,.4111E-4,0
SAOCOM 1A,2018-076A,2026-06-08T07:00:40.996224,14.82169944,.00015423,97.8888,346.1702,79.4496,280.6891,0,U,43641,999,41478,.10999678E-3,.824E-5,0
H-2A R/B,2018-084L,2026-06-08T04:34:21.216576,15.44806429,.00242678,98.8591,36.1169,70.4945,289.8918,0,U,43682,999,41973,.36277308E-3,.17078E-3,0
SAOCOM 1B,2020-059A,2026-06-08T07:45:43.115616,14.82161847,.00014793,97.8891,345.2952,77.4710,282.6668,0,U,46265,999,31217,-.3986852E-5,-.84E-6,0
CSS (TIANHE),2021-035A,2026-06-08T01:57:54.676512,15.60427341,.00087027,41.4696,17.3987,5.5904,354.5031,0,U,48274,999,29174,.30374166E-3,.25465E-3,0
COSMOS 2550,2021-056A,2026-06-08T06:52:12.101952,15.33747324,.00087022,67.1417,126.8306,266.1166,93.8994,0,U,48865,999,27735,.16570045E-3,.525E-4,0
CZ-2C R/B,2022-058K,2026-06-07T10:50:06.017856,15.61206771,.00330488,50.1841,214.1517,227.1063,132.7135,0,U,52794,999,22412,.41128125E-3,.36142E-3,0
CZ-2C R/B,2022-132E,2026-06-07T23:31:20.122464,15.70443092,.0017069,97.2911,165.6003,112.4619,247.8453,0,U,54039,999,20450,.48224645E-3,.59614E-3,0
GSLV R/B,2022-138AN,2026-06-07T23:04:22.009440,14.97218104,.00214154,87.3800,136.0828,175.7728,184.3689,0,U,54149,999,19743,.24747714E-3,.2904E-4,0
XRISM,2023-137A,2026-06-08T00:24:40.784544,15.12386516,.00079203,31.0025,58.9975,233.1431,126.8482,0,U,57800,999,15147,.29985531E-3,.5436E-4,0
ACS3,2024-077B,2026-06-08T07:18:18.000000,13.93888153,.0051344,97.1681,80.0763,68.3061,292.3561,0,U,59588,999,10680,.20019402E-1,.26767E-3,0
CZ-8A R/B,2025-231K,2026-06-08T00:55:10.454016,14.30152443,.01164767,50.0043,78.2391,191.8063,168.0116,0,U,66004,999,3363,.51075093E-4,-.21E-6,0
SZ-21 MODULE,2025-246C,2026-06-06T07:35:07.958112,15.75457395,.00071848,41.4728,14.9847,283.9983,76.0062,0,U,66515,999,3202,.36001641E-3,.56445E-3,0
